ONEWEB-0215             
1 48800U 21045AK  25238.91477693  .00000155  00000+0  37730-3 0  9991
2 48800  87.9071 317.8643 0001368  80.2780 279.8505 13.15547292205607
ONEWEB-0216             
1 48801U 21045AL  25238.69612836 -.00000082  00000+0 -25150-3 0  9991
2 48801  87.9060 317.9504 0002013  93.7928 266.3432 13.15549244205580
ONEWEB-0239             
1 48802U 21045AM  25238.70087558 -.00000087  00000+0 -26517-3 0  9994
2 48802  87.9065 317.9635 0001117  88.2395 271.8863 13.15547958205626
ONEWEB-0249             
1 48967U 21060A   25238.86787510 -.00000033  00000+0 -11921-3 0  9999
2 48967  87.9008 287.4465 0001863  96.7182 263.4161 13.16594286200881
ONEWEB-0250             
1 48968U 21060B   25238.83003811  .00000046  00000+0  73921-4 0  9993
2 48968  87.9005 286.1745 0001286 120.8561 239.2702 13.25812190201212
ONEWEB-0252             
1 48970U 21060D   25238.67155188  .00000016  00000+0  86671-5 0  9997
2 48970  87.9008 287.4788 0002250  90.9046 269.2342 13.16594586200900
ONEWEB-0253             
1 48971U 21060E   25238.66046303  .00000108  00000+0  24913-3 0  9996
2 48971  87.9010 287.4845 0001795  89.0566 271.0771 13.16593976200838
ONEWEB-0254             
1 48972U 21060F   25238.89794477  .00000078  00000+0  16965-3 0  9998
2 48972  87.9009 287.4235 0001527  89.3294 270.8012 13.16592494200866
ONEWEB-0255             
1 48973U 21060G   25238.85995443  .00000073  00000+0  15709-3 0  9991
2 48973  87.9003 287.4594 0001725  90.4225 269.7104 13.16595106200936
ONEWEB-0256             
1 48974U 21060H   25238.88607809  .00000040  00000+0  70370-4 0  9991
2 48974  87.9002 287.4647 0002096  94.3991 265.7379 13.16594081200908
ONEWEB-0257             
1 48975U 21060J   25238.84254129 -.00000030  00000+0 -11275-3 0  9990
2 48975  87.9010 287.4413 0001871  88.9582 271.1763 13.16594588200858
ONEWEB-0258             
1 48976U 21060K   25238.69213274 -.00000134  00000+0 -38328-3 0  9993
2 48976  87.9004 287.4953 0001901  96.9232 263.2115 13.16594748200846
ONEWEB-0259             
1 48977U 21060L   25238.83779019  .00000019  00000+0  17132-4 0  9995
2 48977  87.9011 287.4518 0001777  92.9798 267.1536 13.16594289200891
ONEWEB-0260             
1 48978U 21060M   25238.82908241  .00000013  00000+0  69036-6 0  9992
2 48978  87.9002 287.4778 0002380  87.2303 272.9100 13.16594076200873
ONEWEB-0261             
1 48979U 21060N   25238.87499004 -.00000007  00000+0 -52466-4 0  9992
2 48979  87.9001 287.4702 0001843  81.5823 278.5517 13.16593047200935
ONEWEB-0262             
1 48980U 21060P   25238.85521154 -.00000004  00000+0 -43820-4 0  9995
2 48980  87.9008 287.4371 0001615  96.0814 264.0501 13.16595366200898
