[{"OBJECT_NAME":"ONEWEB-0215","OBJECT_ID":"2021-045AK","EPOCH":"2025-08-26T21:57:16.726752","MEAN_MOTION":13.15547292,"ECCENTRICITY":0.00013683,"INCLINATION":87.9071,"RA_OF_ASC_NODE":317.8643,"ARG_OF_PERICENTER":80.278,"MEAN_ANOMALY":279.8505,"EPHEMERIS_TYPE":0,"CLASSIFICATION_TYPE":"U","NORAD_CAT_ID":48800,"ELEMENT_SET_NO":999,"REV_AT_EPOCH":20560,"BSTAR":0.00037730438,"MEAN_MOTION_DOT":1.55e-6,"MEAN_MOTION_DDOT":0},{"OBJECT_NAME":"ONEWEB-0216","OBJECT_ID":"2021-045AL","EPOCH":"2025-08-26T16:42:25.490304","MEAN_MOTION":13.15549244,"ECCENTRICITY":0.00020138,"INCLINATION":87.906,"RA_OF_ASC_NODE":317.9504,"ARG_OF_PERICENTER":93.7928,"MEAN_ANOMALY":266.3432,"EPHEMERIS_TYPE":0,"CLASSIFICATION_TYPE":"U","NORAD_CAT_ID":48801,"ELEMENT_SET_NO":999,"REV_AT_EPOCH":20558,"BSTAR":-0.00025150336,"MEAN_MOTION_DOT":-8.2e-7,"MEAN_MOTION_DDOT":0},{"OBJECT_NAME":"ONEWEB-0239","OBJECT_ID":"2021-045AM","EPOCH":"2025-08-26T16:49:15.650112","MEAN_MOTION":13.15547958,"ECCENTRICITY":0.00011177,"INCLINATION":87.9065,"RA_OF_ASC_NODE":317.9635,"ARG_OF_PERICENTER":88.2395,"MEAN_ANOMALY":271.8863,"EPHEMERIS_TYPE":0,"CLASSIFICATION_TYPE":"U","NORAD_CAT_ID":48802,"ELEMENT_SET_NO":999,"REV_AT_EPOCH":20562,"BSTAR":-0.00026517034,"MEAN_MOTION_DOT":-8.7e-7,"MEAN_MOTION_DDOT":0},{"OBJECT_NAME":"ONEWEB-0249","OBJECT_ID":"2021-060A","EPOCH":"2025-08-26T20:49:44.408640","MEAN_MOTION":13.16594286,"ECCENTRICITY":0.00018632,"INCLINATION":87.9008,"RA_OF_ASC_NODE":287.4465,"ARG_OF_PERICENTER":96.7182,"MEAN_ANOMALY":263.4161,"EPHEMERIS_TYPE":0,"CLASSIFICATION_TYPE":"U","NORAD_CAT_ID":48967,"ELEMENT_SET_NO":999,"REV_AT_EPOCH":20088,"BSTAR":-0.00011920655,"MEAN_MOTION_DOT":-3.3e-7,"MEAN_MOTION_DDOT":0},{"OBJECT_NAME":"ONEWEB-0250","OBJECT_ID":"2021-060B","EPOCH":"2025-08-26T19:55:15.292704","MEAN_MOTION":13.2581219,"ECCENTRICITY":0.00012862,"INCLINATION":87.9005,"RA_OF_ASC_NODE":286.1745,"ARG_OF_PERICENTER":120.8561,"MEAN_ANOMALY":239.2702,"EPHEMERIS_TYPE":0,"CLASSIFICATION_TYPE":"U","NORAD_CAT_ID":48968,"ELEMENT_SET_NO":999,"REV_AT_EPOCH":20121,"BSTAR":7.3920832e-5,"MEAN_MOTION_DOT":4.6e-7,"MEAN_MOTION_DDOT":0},{"OBJECT_NAME":"ONEWEB-0252","OBJECT_ID":"2021-060D","EPOCH":"2025-08-26T16:07:02.082432","MEAN_MOTION":13.16594586,"ECCENTRICITY":0.00022506,"INCLINATION":87.9008,"RA_OF_ASC_NODE":287.4788,"ARG_OF_PERICENTER":90.9046,"MEAN_ANOMALY":269.2342,"EPHEMERIS_TYPE":0,"CLASSIFICATION_TYPE":"U","NORAD_CAT_ID":48970,"ELEMENT_SET_NO":999,"REV_AT_EPOCH":20090,"BSTAR":8.667135e-6,"MEAN_MOTION_DOT":1.6e-7,"MEAN_MOTION_DDOT":0},{"OBJECT_NAME":"ONEWEB-0253","OBJECT_ID":"2021-060E","EPOCH":"2025-08-26T15:51:04.005792","MEAN_MOTION":13.16593976,"ECCENTRICITY":0.00017954,"INCLINATION":87.901,"RA_OF_ASC_NODE":287.4845,"ARG_OF_PERICENTER":89.0566,"MEAN_ANOMALY":271.0771,"EPHEMERIS_TYPE":0,"CLASSIFICATION_TYPE":"U","NORAD_CAT_ID":48971,"ELEMENT_SET_NO":999,"REV_AT_EPOCH":20083,"BSTAR":0.00024913453,"MEAN_MOTION_DOT":1.08e-6,"MEAN_MOTION_DDOT":0},{"OBJECT_NAME":"ONEWEB-0254","OBJECT_ID":"2021-060F","EPOCH":"2025-08-26T21:33:02.428128","MEAN_MOTION":13.16592494,"ECCENTRICITY":0.0001527,"INCLINATION":87.9009,"RA_OF_ASC_NODE":287.4235,"ARG_OF_PERICENTER":89.3294,"MEAN_ANOMALY":270.8012,"EPHEMERIS_TYPE":0,"CLASSIFICATION_TYPE":"U","NORAD_CAT_ID":48972,"ELEMENT_SET_NO":999,"REV_AT_EPOCH":20086,"BSTAR":0.00016964931,"MEAN_MOTION_DOT":7.8e-7,"MEAN_MOTION_DDOT":0},{"OBJECT_NAME":"ONEWEB-0255","OBJECT_ID":"2021-060G","EPOCH":"2025-08-26T20:38:20.062752","MEAN_MOTION":13.16595106,"ECCENTRICITY":0.00017255,"INCLINATION":87.9003,"RA_OF_ASC_NODE":287.4594,"ARG_OF_PERICENTER":90.4225,"MEAN_ANOMALY":269.7104,"EPHEMERIS_TYPE":0,"CLASSIFICATION_TYPE":"U","NORAD_CAT_ID":48973,"ELEMENT_SET_NO":999,"REV_AT_EPOCH":20093,"BSTAR":0.00015709363,"MEAN_MOTION_DOT":7.3e-7,"MEAN_MOTION_DDOT":0},{"OBJECT_NAME":"ONEWEB-0256","OBJECT_ID":"2021-060H","EPOCH":"2025-08-26T21:15:57.146976","MEAN_MOTION":13.16594081,"ECCENTRICITY":0.00020964,"INCLINATION":87.9002,"RA_OF_ASC_NODE":287.4647,"ARG_OF_PERICENTER":94.3991,"MEAN_ANOMALY":265.7379,"EPHEMERIS_TYPE":0,"CLASSIFICATION_TYPE":"U","NORAD_CAT_ID":48974,"ELEMENT_SET_NO":999,"REV_AT_EPOCH":20090,"BSTAR":7.0370212e-5,"MEAN_MOTION_DOT":4.0e-7,"MEAN_MOTION_DDOT":0},{"OBJECT_NAME":"ONEWEB-0257","OBJECT_ID":"2021-060J","EPOCH":"2025-08-26T20:13:15.567456","MEAN_MOTION":13.16594588,"ECCENTRICITY":0.00018714,"INCLINATION":87.901,"RA_OF_ASC_NODE":287.4413,"ARG_OF_PERICENTER":88.9582,"MEAN_ANOMALY":271.1763,"EPHEMERIS_TYPE":0,"CLASSIFICATION_TYPE":"U","NORAD_CAT_ID":48975,"ELEMENT_SET_NO":999,"REV_AT_EPOCH":20085,"BSTAR":-0.00011274507,"MEAN_MOTION_DOT":-3.0e-7,"MEAN_MOTION_DDOT":0},{"OBJECT_NAME":"ONEWEB-0258","OBJECT_ID":"2021-060K","EPOCH":"2025-08-26T16:36:40.268736","MEAN_MOTION":13.16594748,"ECCENTRICITY":0.00019013,"INCLINATION":87.9004,"RA_OF_ASC_NODE":287.4953,"ARG_OF_PERICENTER":96.9232,"MEAN_ANOMALY":263.2115,"EPHEMERIS_TYPE":0,"CLASSIFICATION_TYPE":"U","NORAD_CAT_ID":48976,"ELEMENT_SET_NO":999,"REV_AT_EPOCH":20084,"BSTAR":-0.00038328258,"MEAN_MOTION_DOT":-1.34e-6,"MEAN_MOTION_DDOT":0},{"OBJECT_NAME":"ONEWEB-0259","OBJECT_ID":"2021-060L","EPOCH":"2025-08-26T20:06:25.072416","MEAN_MOTION":13.16594289,"ECCENTRICITY":0.00017778,"INCLINATION":87.9011,"RA_OF_ASC_NODE":287.4518,"ARG_OF_PERICENTER":92.9798,"MEAN_ANOMALY":267.1536,"EPHEMERIS_TYPE":0,"CLASSIFICATION_TYPE":"U","NORAD_CAT_ID":48977,"ELEMENT_SET_NO":999,"REV_AT_EPOCH":20089,"BSTAR":1.7132233e-5,"MEAN_MOTION_DOT":1.9e-7,"MEAN_MOTION_DDOT":0},{"OBJECT_NAME":"ONEWEB-0260","OBJECT_ID":"2021-060M","EPOCH":"2025-08-26T19:53:52.720224","MEAN_MOTION":13.16594076,"ECCENTRICITY":0.00023803,"INCLINATION":87.9002,"RA_OF_ASC_NODE":287.4778,"ARG_OF_PERICENTER":87.2303,"MEAN_ANOMALY":272.91,"EPHEMERIS_TYPE":0,"CLASSIFICATION_TYPE":"U","NORAD_CAT_ID":48978,"ELEMENT_SET_NO":999,"REV_AT_EPOCH":20087,"BSTAR":6.90363e-7,"MEAN_MOTION_DOT":1.3e-7,"MEAN_MOTION_DDOT":0},{"OBJECT_NAME":"ONEWEB-0261","OBJECT_ID":"2021-060N","EPOCH":"2025-08-26T20:59:59.139456","MEAN_MOTION":13.16593047,"ECCENTRICITY":0.00018433,"INCLINATION":87.9001,"RA_OF_ASC_NODE":287.4702,"ARG_OF_PERICENTER":81.5823,"MEAN_ANOMALY":278.5517,"EPHEMERIS_TYPE":0,"CLASSIFICATION_TYPE":"U","NORAD_CAT_ID":48979,"ELEMENT_SET_NO":999,"REV_AT_EPOCH":20093,"BSTAR":-5.2466096e-5,"MEAN_MOTION_DOT":-7.0e-8,"MEAN_MOTION_DDOT":0},{"OBJECT_NAME":"ONEWEB-0262","OBJECT_ID":"2021-060P","EPOCH":"2025-08-26T20:31:30.277056","MEAN_MOTION":13.16595366,"ECCENTRICITY":0.00016159,"INCLINATION":87.9008,"RA_OF_ASC_NODE":287.4371,"ARG_OF_PERICENTER":96.0814,"MEAN_ANOMALY":264.0501,"EPHEMERIS_TYPE":0,"CLASSIFICATION_TYPE":"U","NORAD_CAT_ID":48980,"ELEMENT_SET_NO":999,"REV_AT_EPOCH":20089,"BSTAR":-4.3820302e-5,"MEAN_MOTION_DOT":-4.0e-8,"MEAN_MOTION_DDOT":0}]
